STARLINK-1559           
1 46077U 20055BC  26068.23360559  .00042685  00000+0  14779-2 0  9995
2 46077  53.0254  76.0659 0004229  33.9710 326.1559 15.29461733309518
STARLINK-33845          
1 63495U 25071C   26068.50389270  .00022854  00000+0  78173-3 0  9997
2 63495  53.1585 140.6330 0001268  85.2768 274.8377 15.30185595 52722
